start=new Date('2022-02-15T00:00:00.000Z').valueOf();
sats=[{"MEAN_ANOMALY":"290.7863","EPOCH":"2022-02-14T17:43:59.101536","EPHEMERIS_TYPE":"0","COUNTRY_CODE":"US","TIME_SYSTEM":"UTC","CLASSIFICATION_TYPE":"U","NORAD_CAT_ID":"46698","ARG_OF_PERICENTER":"69.3306","MEAN_ELEMENT_THEORY":"SGP4","INCLINATION":"53.0535","ELEMENT_SET_NO":"999","REF_FRAME":"TEME","MEAN_MOTION":"15.06393660","SITE":"AFETR","APOAPSIS":"548.394","TLE_LINE2":"2 46698  53.0535  63.3301 0001677  69.3306 290.7863 15.06393660 73464","GP_ID":"195967468","RA_OF_ASC_NODE":"63.3301","DECAY_DATE":null,"OBJECT_TYPE":"PAYLOAD","CENTER_NAME":"EARTH","SEMIMAJOR_AXIS":"6925.368","PERIOD":"95.593","MEAN_MOTION_DDOT":"0.0000000000000","FILE":"3300727","OBJECT_NAME":"STARLINK-1797","BSTAR":"0.00022173000000","ECCENTRICITY":"0.00016770","OBJECT_ID":"2020-073AE","RCS_SIZE":"LARGE","PERIAPSIS":"546.072","MEAN_MOTION_DOT":"0.00003022","LAUNCH_DATE":"2020-10-18","REV_AT_EPOCH":"7346","TLE_LINE1":"1 46698U 20073AE  22045.73887849  .00003022  00000-0  22173-3 0  9997"},{"PERIAPSIS":"546.051","MEAN_MOTION_DOT":"-0.00001287","LAUNCH_DATE":"2020-10-18","REV_AT_EPOCH":"7346","TLE_LINE1":"1 46699U 20073AF  22045.74256953 -.00001287  00000-0 -67505-4 0  9997","ECCENTRICITY":"0.00017120","RCS_SIZE":"LARGE","OBJECT_ID":"2020-073AF","BSTAR":"-0.00006750500000","PERIOD":"95.593","SEMIMAJOR_AXIS":"6925.372","OBJECT_TYPE":"PAYLOAD","CENTER_NAME":"EARTH","MEAN_MOTION_DDOT":"0.0000000000000","FILE":"3300727","OBJECT_NAME":"STARLINK-1799","REF_FRAME":"TEME","MEAN_MOTION":"15.06392467","APOAPSIS":"548.422","SITE":"AFETR","RA_OF_ASC_NODE":"63.3303","GP_ID":"195967718","TLE_LINE2":"2 46699  53.0561  63.3303 0001712  63.0083 297.1081 15.06392467 73466","DECAY_DATE":null,"ARG_OF_PERICENTER":"63.0083","INCLINATION":"53.0561","MEAN_ELEMENT_THEORY":"SGP4","ELEMENT_SET_NO":"999","CLASSIFICATION_TYPE":"U","NORAD_CAT_ID":"46699","MEAN_ANOMALY":"297.1081","EPHEMERIS_TYPE":"0","COUNTRY_CODE":"US","TIME_SYSTEM":"UTC","EPOCH":"2022-02-14T17:49:18.007392"},{"DECAY_DATE":null,"TLE_LINE2":"2 46700  53.0537  77.9921 0001692  61.7694 298.3465 15.06404304 73260","GP_ID":"195966468","RA_OF_ASC_NODE":"77.9921","SITE":"AFETR","APOAPSIS":"548.372","MEAN_MOTION":"15.06404304","REF_FRAME":"TEME","ELEMENT_SET_NO":"999","MEAN_ELEMENT_THEORY":"SGP4","INCLINATION":"53.0537","ARG_OF_PERICENTER":"61.7694","NORAD_CAT_ID":"46700","CLASSIFICATION_TYPE":"U","EPOCH":"2022-02-14T19:30:47.891520","COUNTRY_CODE":"US","EPHEMERIS_TYPE":"0","TIME_SYSTEM":"UTC","MEAN_ANOMALY":"298.3465","TLE_LINE1":"1 46700U 20073AG  22045.81305430  .00008965  00000-0  61990-3 0  9992","REV_AT_EPOCH":"7326","LAUNCH_DATE":"2020-10-18","MEAN_MOTION_DOT":"0.00008965","PERIAPSIS":"546.029","OBJECT_ID":"2020-073AG","RCS_SIZE":"LARGE","ECCENTRICITY":"0.00016920","BSTAR":"0.00061990000000","OBJECT_NAME":"STARLINK-1800","FILE":"3300727","MEAN_MOTION_DDOT":"0.0000000000000","OBJECT_TYPE":"PAYLOAD","CENTER_NAME":"EARTH","SEMIMAJOR_AXIS":"6925.335","PERIOD":"95.592"},{"PERIAPSIS":"546.013","MEAN_MOTION_DOT":"0.00006230","LAUNCH_DATE":"2020-10-18","REV_AT_EPOCH":"7347","TLE_LINE1":"1 46701U 20073AH  22045.77942671  .00006230  00000-0  43680-3 0  9991","ECCENTRICITY":"0.00017500","RCS_SIZE":"LARGE","OBJECT_ID":"2020-073AH","BSTAR":"0.00043680000000","SEMIMAJOR_AXIS":"6925.360","PERIOD":"95.592","OBJECT_TYPE":"PAYLOAD","CENTER_NAME":"EARTH","MEAN_MOTION_DDOT":"0.0000000000000","FILE":"3300727","OBJECT_NAME":"STARLINK-1801","MEAN_MOTION":"15.06396270","REF_FRAME":"TEME","APOAPSIS":"548.437","SITE":"AFETR","RA_OF_ASC_NODE":"63.1493","GP_ID":"195966718","TLE_LINE2":"2 46701  53.0549  63.1493 0001750  58.4463 301.6696 15.06396270 73476","DECAY_DATE":null,"ARG_OF_PERICENTER":"58.4463","INCLINATION":"53.0549","MEAN_ELEMENT_THEORY":"SGP4","ELEMENT_SET_NO":"999","CLASSIFICATION_TYPE":"U","NORAD_CAT_ID":"46701","MEAN_ANOMALY":"301.6696","EPHEMERIS_TYPE":"0","COUNTRY_CODE":"US","TIME_SYSTEM":"UTC","EPOCH":"2022-02-14T18:42:22.467744"},{"MEAN_ANOMALY":"301.5641","EPOCH":"2022-02-14T17:25:24.412800","TIME_SYSTEM":"UTC","COUNTRY_CODE":"US","EPHEMERIS_TYPE":"0","CLASSIFICATION_TYPE":"U","NORAD_CAT_ID":"46702","ARG_OF_PERICENTER":"58.5531","MEAN_ELEMENT_THEORY":"SGP4","INCLINATION":"53.0555","ELEMENT_SET_NO":"999","REF_FRAME":"TEME","MEAN_MOTION":"15.06396995","SITE":"AFETR","APOAPSIS":"548.516","TLE_LINE2":"2 46702  53.0555  43.3994 0001867  58.5531 301.5641 15.06396995 73749","GP_ID":"195966968","RA_OF_ASC_NODE":"43.3994","DECAY_DATE":null,"CENTER_NAME":"EARTH","OBJECT_TYPE":"PAYLOAD","PERIOD":"95.592","SEMIMAJOR_AXIS":"6925.358","MEAN_MOTION_DDOT":"0.0000000000000","FILE":"3300727","OBJECT_NAME":"STARLINK-1802","BSTAR":"0.00004297600000","ECCENTRICITY":"0.00018670","OBJECT_ID":"2020-073AJ","RCS_SIZE":"LARGE","PERIAPSIS":"545.930","MEAN_MOTION_DOT":"0.00000358","LAUNCH_DATE":"2020-10-18","REV_AT_EPOCH":"7374","TLE_LINE1":"1 46702U 20073AJ  22045.72597700  .00000358  00000-0  42976-4 0  9999"},{"NORAD_CAT_ID":"46703","CLASSIFICATION_TYPE":"U","COUNTRY_CODE":"US","TIME_SYSTEM":"UTC","EPHEMERIS_TYPE":"0","EPOCH":"2022-02-14T18:10:31.861344","MEAN_ANOMALY":"300.1951","DECAY_DATE":null,"RA_OF_ASC_NODE":"63.2460","GP_ID":"195967218","TLE_LINE2":"2 46703  53.0544  63.2460 0001729  59.9210 300.1951 15.06389068 73464","APOAPSIS":"548.444","SITE":"AFETR","MEAN_MOTION":"15.06389068","REF_FRAME":"TEME","ELEMENT_SET_NO":"999","INCLINATION":"53.0544","MEAN_ELEMENT_THEORY":"SGP4","ARG_OF_PERICENTER":"59.9210","BSTAR":"0.00002358300000","OBJECT_NAME":"STARLINK-1803","FILE":"3300727","MEAN_MOTION_DDOT":"0.0000000000000","SEMIMAJOR_AXIS":"6925.382","PERIOD":"95.593","CENTER_NAME":"EARTH","OBJECT_TYPE":"PAYLOAD","TLE_LINE1":"1 46703U 20073AK  22045.75731321  .00000070  00000-0  23583-4 0  9996","LAUNCH_DATE":"2020-10-18","REV_AT_EPOCH":"7346","MEAN_MOTION_DOT":"0.00000070","PERIAPSIS":"546.050","RCS_SIZE":"LARGE","OBJECT_ID":"2020-073AK","ECCENTRICITY":"0.00017290"},{"CLASSIFICATION_TYPE":"U","NORAD_CAT_ID":"46704","EPOCH":"2022-02-14T09:43:38.396928","TIME_SYSTEM":"UTC","COUNTRY_CODE":"US","EPHEMERIS_TYPE":"0","MEAN_ANOMALY":"292.3380","SITE":"AFETR","APOAPSIS":"548.266","MEAN_MOTION":"15.06390708","REF_FRAME":"TEME","DECAY_DATE":null,"TLE_LINE2":"2 46704  53.0558  44.8333 0001479  67.7766 292.3380 15.06390708 73695","GP_ID":"195937483","RA_OF_ASC_NODE":"44.8333","MEAN_ELEMENT_THEORY":"SGP4","INCLINATION":"53.0558","ARG_OF_PERICENTER":"67.7766","ELEMENT_SET_NO":"999","BSTAR":"0.00054179000000","MEAN_MOTION_DDOT":"0.0000000000000","OBJECT_TYPE":"PAYLOAD","CENTER_NAME":"EARTH","PERIOD":"95.593","SEMIMAJOR_AXIS":"6925.377","OBJECT_NAME":"STARLINK-1804","FILE":"3300472","MEAN_MOTION_DOT":"0.00007796","PERIAPSIS":"546.218","TLE_LINE1":"1 46704U 20073AL  22045.40530552  .00007796  00000-0  54179-3 0  9998","REV_AT_EPOCH":"7369","LAUNCH_DATE":"2020-10-18","OBJECT_ID":"2020-073AL","RCS_SIZE":"LARGE","ECCENTRICITY":"0.00014790"},{"NORAD_CAT_ID":"46705","CLASSIFICATION_TYPE":"U","MEAN_ANOMALY":"294.1643","EPOCH":"2022-02-14T08:27:20.034144","COUNTRY_CODE":"US","TIME_SYSTEM":"UTC","EPHEMERIS_TYPE":"0","TLE_LINE2":"2 46705  53.0541  80.0563 0001566  65.9509 294.1643 15.06394075 73195","GP_ID":"195936234","RA_OF_ASC_NODE":"80.0563","DECAY_DATE":null,"MEAN_MOTION":"15.06394075","REF_FRAME":"TEME","SITE":"AFETR","APOAPSIS":"548.316","ELEMENT_SET_NO":"999","ARG_OF_PERICENTER":"65.9509","MEAN_ELEMENT_THEORY":"SGP4","INCLINATION":"53.0541","BSTAR":"-0.00006244700000","FILE":"3300472","OBJECT_NAME":"STARLINK-1805","CENTER_NAME":"EARTH","OBJECT_TYPE":"PAYLOAD","PERIOD":"95.593","SEMIMAJOR_AXIS":"6925.367","MEAN_MOTION_DDOT":"0.0000000000000","REV_AT_EPOCH":"7319","LAUNCH_DATE":"2020-10-18","TLE_LINE1":"1 46705U 20073AM  22045.35231521 -.00001211  00000-0 -62447-4 0  9993","PERIAPSIS":"546.147","MEAN_MOTION_DOT":"-0.00001211","ECCENTRICITY":"0.00015660","OBJECT_ID":"2020-073AM","RCS_SIZE":"LARGE"},{"ECCENTRICITY":"0.00017130","RCS_SIZE":"LARGE","OBJECT_ID":"2020-073AN","PERIAPSIS":"546.015","MEAN_MOTION_DOT":"0.00001824","REV_AT_EPOCH":"7343","LAUNCH_DATE":"2020-10-18","TLE_LINE1":"1 46706U 20073AN  22045.52508190  .00001824  00000-0  14129-3 0  9993","SEMIMAJOR_AXIS":"6925.336","PERIOD":"95.592","OBJECT_TYPE":"PAYLOAD","CENTER_NAME":"EARTH","MEAN_MOTION_DDOT":"0.0000000000000","FILE":"3300472","OBJECT_NAME":"STARLINK-1807","BSTAR":"0.00014129000000","ARG_OF_PERICENTER":"53.6419","INCLINATION":"53.0556","MEAN_ELEMENT_THEORY":"SGP4","ELEMENT_SET_NO":"999","REF_FRAME":"TEME","MEAN_MOTION":"15.06403957","APOAPSIS":"548.388","SITE":"AFETR","RA_OF_ASC_NODE":"64.2842","GP_ID":"195936484","TLE_LINE2":"2 46706  53.0556  64.2842 0001713  53.6419 306.4728 15.06403957 73432","DECAY_DATE":null,"MEAN_ANOMALY":"306.4728","EPHEMERIS_TYPE":"0","COUNTRY_CODE":"US","TIME_SYSTEM":"UTC","EPOCH":"2022-02-14T12:36:07.076160","CLASSIFICATION_TYPE":"U","NORAD_CAT_ID":"46706"},{"NORAD_CAT_ID":"46707","CLASSIFICATION_TYPE":"U","EPOCH":"2022-02-14T17:09:28.751040","COUNTRY_CODE":"US","EPHEMERIS_TYPE":"0","TIME_SYSTEM":"UTC","MEAN_ANOMALY":"296.1423","DECAY_DATE":null,"TLE_LINE2":"2 46707  53.0547  43.4330 0001614  63.9732 296.1423 15.06405230 73743","GP_ID":"195967719","RA_OF_ASC_NODE":"43.4330","SITE":"AFETR","APOAPSIS":"548.315","MEAN_MOTION":"15.06405230","REF_FRAME":"TEME","ELEMENT_SET_NO":"999","MEAN_ELEMENT_THEORY":"SGP4","INCLINATION":"53.0547","ARG_OF_PERICENTER":"63.9732","BSTAR":"-0.00018992000000","OBJECT_NAME":"STARLINK-1808","FILE":"3300727","MEAN_MOTION_DDOT":"0.0000000000000","CENTER_NAME":"EARTH","OBJECT_TYPE":"PAYLOAD","PERIOD":"95.592","SEMIMAJOR_AXIS":"6925.333","TLE_LINE1":"1 46707U 20073AP  22045.71491610 -.00003110  00000-0 -18992-3 0  9997","REV_AT_EPOCH":"7374","LAUNCH_DATE":"2020-10-18","MEAN_MOTION_DOT":"-0.00003110","PERIAPSIS":"546.080","OBJECT_ID":"2020-073AP","RCS_SIZE":"LARGE","ECCENTRICITY":"0.00016140"}];
